TRANSIT 16 [?]          
1 02807U 67048A   22215.51917904  .00000061  00000+0  78761-4 0  9999
2 02807  89.6528  34.8615 0022154  67.0185 347.1579 13.50318398717120
TRANSIT 17 [?]          
1 02965U 67092A   22216.14477303  .00000048  00000+0  54301-4 0  9996
2 02965  89.2404 119.7773 0046688 194.8928 333.7750 13.53030837705507
TRANSIT 18 [?]          
1 03133U 68012A   22215.66970328  .00000052  00000+0  63523-4 0  9999
2 03133  90.0049 271.6167 0076987 123.7473  49.2964 13.51157516403464
NNSS 19 [?]             
1 04507U 70067A   22215.52191237  .00000044  00000+0  51514-4 0  9995
2 04507  89.9199 238.9755 0170379 247.5714 110.7314 13.50832115556517
NNSS O-20 [?]           
1 06909U 73081A   22216.15085882  .00000086  00000+0  76435-4 0  9995
2 06909  89.8181 276.5561 0157637 153.4479 207.4869 13.70686578635826
TRANSAT [?]             
1 10457U 77106A   22215.70365244  .00000051  00000+0  64397-4 0  9999
2 10457  89.6832 121.0039 0026553 127.5062 250.4123 13.48682510202037
NOVA I [?]              
1 12458U 81044A   22215.71052772  .00000038  00000+0  69539-4 0  9996
2 12458  89.8881 107.1727 0012560 246.0246 124.8224 13.23066971989598
NOVA 3 [?]              
1 15362U 84110A   22216.51617958  .00000002  00000+0 -16654-4 0  9994
2 15362  90.0954  67.4343 0033559 108.6511 311.8304 13.22835780825138
OSCAR 30 [?]            
1 15935U 85066A   22216.20206997  .00000035  00000+0  50840-4 0  9994
2 15935  90.1751  78.7503 0167393 304.2153 173.8742 13.35759581800844
OSCAR 24 [?]            
1 15936U 85066B   22215.83344715  .00000022  00000+0  26563-4 0  9995
2 15936  90.1700  70.7029 0168056 311.0060 169.9716 13.35619654802647
POLAR BEAR [?]          
1 17070U 86088A   22215.52158983  .00000047  00000+0  37353-4 0  9993
2 17070  89.5611 235.4461 0037680 219.1227 255.5182 13.74873338791417
OSCAR 27 [?]            
1 18361U 87080A   22215.54814788  .00000046  00000+0  60171-4 0  9997
2 18361  90.3287  35.7933 0105721 137.8725 223.0611 13.44567766710641
OSCAR 29 [?]            
1 18362U 87080B   22215.53452678  .00000079  00000+0  11678-3 0  9996
2 18362  90.3298  36.1247 0106787 158.1018 261.8567 13.44154204710224
OSCAR 23 [?]            
1 19070U 88033A   22215.64706485  .00000030  00000+0  45693-4 0  9994
2 19070  90.3351 338.2701 0189472 353.0565  18.7207 13.27524005659714
OSCAR 32 [?]            
1 19071U 88033B   22216.39733410  .00000038  00000+0  63904-4 0  9999
2 19071  90.3352 338.3809 0187298 338.8352  80.9367 13.27703955660336
NOVA 11 [?]             
1 19223U 88052A   22215.39307145  .00000045  00000+0  84991-4 0  9997
2 19223  89.9725  80.7635 0031226 152.9898  19.8771 13.22747382647216
OSCAR 25 [?]            
1 19419U 88074A   22215.53554101  .00000057  00000+0  81725-4 0  9995
2 19419  90.0043  17.9057 0097542 145.8042 286.0365 13.42298757661755
OSCAR 31 [?]            
1 19420U 88074B   22215.68602899  .00000092  00000+0  14222-3 0  9997
2 19420  90.0054  18.0866 0095878 139.5908 232.4303 13.42308507661886
